ICS-EF (ISS DEB)        
1 45265U 98067RJ  22363.14596954  .00069133  00000+0  37972-3 0  9993
2 45265  51.6322  40.2921 0001732 279.6674  80.4132 15.79106317162204
ISS DEB                 
1 47853U 98067RZ  22362.59278506  .00013407  00000+0  18005-3 0  9995
2 47853  51.6401  80.3606 0002069   3.0030 357.0974 15.58252806102136
MMSATS-1                
1 47976U 98067SJ  22363.27456387  .00069438  00000+0  48499-3 0  9997
2 47976  51.6369  58.2766 0003208 356.0025 118.3421 15.73638038100761
CSS (TIANHE)            
1 48274U 21035A   22363.06506944  .00019683  00000+0  24003-3 0  9994
2 48274  41.4759 112.6261 0005270 237.7144  98.6010 15.59995511 95220
ISS (NAUKA)             
1 49044U 21066A   22362.54362269  .00020937  00000+0  37773-3 0  9998
2 49044  51.6447  93.7961 0005303 199.0461 344.5108 15.49696677375321
FREGAT DEB              
1 49271U 11037PF  22361.45500015 -.00011329  00000+0 -37047-1 0  9998
2 49271  51.5978  63.0069 0956498  86.0151 284.9310 11.98387956 70254
LIGHT-1                 
1 51509U 98067TG  22361.99252688  .00385147  69351-4  10119-2 0  9993
2 51509  51.6340  62.6246 0006250 284.3115  75.7199 15.94245195 51306
KITSUNE                 
1 52148U 98067TK  22363.08631990  .00084180  00000+0  64682-3 0  9991
2 52148  51.6373  73.6383 0004375 301.7360 128.7799 15.71305445 43641
PROGRESS-MS 20          
1 52795U 22059A   22362.54362269  .00020937  00000+0  37773-3 0  9998
2 52795  51.6447  93.7961 0005303 199.0461 344.5108 15.49696677375328
CSS (WENTIAN)           
1 53239U 22085A   22362.10797454  .00018824  00000+0  23012-3 0  9994
2 53239  41.4757 118.4444 0005326 229.7968 124.5392 15.59954315 95071
1998-067TQ              
1 53305U 98067TQ  22363.14828834  .00124782  00000+0  91166-3 0  9999
2 53305  51.6358  80.9596 0005455 308.2383  51.8124 15.72323694 25032
YUZGU 8                 
1 53306U 98067TR  22362.59862568  .00215738  00000+0  11734-2 0  9994
2 53306  51.6315  81.7655 0006067 323.9818  36.0774 15.78777631 24976
1998-067TS              
1 53307U 98067TS  22363.24206500  .00198180  00000+0  11107-2 0  9991
2 53307  51.6316  78.5512 0005702 323.8065  36.2550 15.78164792 25100
YUZGU 9 (RS3S)          
1 53308U 98067TT  22363.26022336  .00193676  00000+0  11154-2 0  9994
2 53308  51.6331  78.6838 0005825 326.2452  33.8177 15.77568228 25135
YUZGU 7 (RS1S)          
1 53309U 98067TU  22363.22464682  .00215739  00000+0  11730-2 0  9990
2 53309  51.6319  78.4340 0006408 326.4554  33.6040 15.78782583 25085
YUZGU 11 (RS5S)         
1 53310U 98067TV  22363.25801460  .00199959  00000+0  11425-2 0  9990
2 53310  51.6340  78.6690 0005901 323.3578  36.7018 15.77726571 25117
YUZGU 12 (RS6S)         
1 53311U 98067TW  22363.24979899  .00233670  00000+0  11921-2 0  9992
2 53311  51.6302  77.8454 0006087 331.2815  28.7850 15.80137729 25146
TSIOLKOVSKY-RYAZAN 1 (*)
1 53312U 98067TX  22363.23328807  .00203242  00000+0  11304-2 0  9996
2 53312  51.6304  78.5007 0006621 325.5347  34.5224 15.78312975 25078
TSIOLKOVSKY-RYAZAN 2 (*)
1 53313U 98067TY  22363.22671557  .00207985  00000+0  11500-2 0  9995
2 53313  51.6329  78.4599 0006405 328.6665  31.3953 15.78431871 25125
YUZGU 10 (RS4S)         
1 53321U 98067TZ  22363.24421368  .00196891  00000+0  11118-2 0  9997
2 53321  51.6340  78.5751 0005861 325.2706  34.7911 15.77999659 25125
YUZGU UA                
1 53322U 98067UA  22363.22046291  .00222681  00000+0  11856-2 0  9990
2 53322  51.6332  78.4103 0006194 328.8811  31.1822 15.79228943 25072
HSU-SAT1                
1 53462U 98067UB  22362.83234715  .00075665  00000+0  71091-3 0  9997
2 53462  51.6355  84.8453 0007611 297.7370  62.2854 15.66431517 21581
FUTABA                  
1 53463U 98067UC  22362.25354014  .00132263  00000+0  10267-2 0  9994
2 53463  51.6336  86.2137 0007908 301.5947  58.4278 15.70836407 21511
TUMNANOSAT              
1 53464U 98067UD  22362.30406504  .00192118  00000+0  11739-2 0  9993
2 53464  51.6331  84.2894 0008349 312.6586  47.3710 15.76212488 21541
D3                      
1 53767U 98067UE  22362.80138484  .00049491  00000+0  56989-3 0  9995
2 53767  51.6377  87.6656 0005206 311.8568  48.1981 15.61460246 17668
BEAVERCUBE              
1 53768U 98067UF  22362.36075778  .00054039  00000+0  62702-3 0  9997
2 53768  51.6379  89.9666 0003627 302.9891  57.0753 15.61232633 17609
CLICK-A                 
1 53769U 98067UG  22362.78932837  .00103275  00000+0  97957-3 0  9999
2 53769  51.6441  86.1252 0005071 309.9387  50.1163 15.66081996 17699
CAPSAT 1                
1 53770U 98067UH  22361.49053287  .00260349  00000+0  16613-2 0  9996
2 53770  51.6359  90.1318 0007721 318.0503  41.9905 15.75024872 17526
JAGSAT 1                
1 53771U 98067UJ  22362.81885690  .00250026  00000+0  13454-2 0  9996
2 53771  51.6314  82.4880 0008472 331.6218  28.4320 15.78895136 17730
ISS DEB                 
1 53772U 98067UK  22362.62057707  .00089488  00000+0  83669-3 0  9994
2 53772  51.6360  87.1896 0005873 290.1285  69.9079 15.66496670 17655
SOYUZ-MS 22             
1 53879U 22116A   22362.54362269  .00020937  00000+0  37773-3 0  9996
2 53879  51.6447  93.7961 0005303 199.0461 344.5108 15.49696677375322
CREW DRAGON 5           
1 53963U 22124A   22362.54362269  .00020937  00000+0  37773-3 0  9999
2 53963  51.6447  93.7961 0005303 199.0461 344.5108 15.49696677375326
PROGRESS-MS 21          
1 54155U 22140A   22362.54362269  .00020937  00000+0  37773-3 0  9991
2 54155  51.6447  93.7961 0005303 199.0461 344.5108 15.49696677375320
CSS (MENGTIAN)          
1 54216U 22143A   22362.10797454  .00018824  00000+0  23012-3 0  9995
2 54216  41.4757 118.4444 0005326 229.7968 124.5392 15.59954315 95077
CYGNUS NG-18            
1 54232U 22149A   22362.54362269  .00020937  00000+0  37773-3 0  9996
2 54232  51.6447  93.7961 0005303 199.0461 344.5108 15.49696677375326
TIANZHOU-5              
1 54237U 22152A   22362.10797454  .00018824  00000+0  23012-3 0  9998
2 54237  41.4757 118.4444 0005326 229.7968 124.5392 15.59954315 95070
DRAGON CRS-26           
1 54371U 22159A   22362.54362269  .00020937  00000+0  37773-3 0  9991
2 54371  51.6447  93.7961 0005303 199.0461 344.5108 15.49696677375320
SHENZHOU-15             
1 54379U 22162A   22362.10797454  .00018824  00000+0  23012-3 0  9996
2 54379  41.4757 118.4444 0005326 229.7968 124.5392 15.59954315 95077
1998-067UL              
1 54534U 98067UL  22361.45237145  .00055002  00000+0  87860-3 0  9999
2 54534  51.6411  98.8935 0004712 223.0689 136.9932 15.52625226  3953
1998-067UM              
1 54535U 98067UM  22363.13596895  .00054250  00000+0  85175-3 0  9998
2 54535  51.6424  90.4843 0004427 232.4396 198.6044 15.53111297  4214
1998-067UN              
1 54536U 98067UN  22363.07363108  .00042180  00000+0  67800-3 0  9995
2 54536  51.6432  90.8396 0005226 224.2306 196.0654 15.52565895  4168
1998-067UP              
1 54537U 98067UP  22363.07202132  .00047261  00000+0  75131-3 0  9996
2 54537  51.6432  90.8191 0004703 233.2460 190.6011 15.52825307  4201
2021-035C               
1 54816U 21035C   22363.37762609  .00095883  00000+0  10426-2 0  9998
2 54816  41.4773 110.5666 0007497 269.2099  90.7734 15.62352716  1640
